[Satellite]
VERSION=1.1
NAME=HOOPOE
NICKNAME=HOOPOE
TLE1=1 42718U 98067LZ  18021.17733968  .00022530  00000-0  23122-3 0  9993
TLE2=2 42718  51.6379  22.2254 0004316  55.7511 304.3893 15.64832968 37901
